MR-2                    
1 67556U 26015A   26050.58979964  .00000064  00000+0  78972-4 0  9999
2 67556  88.9962 280.5033 0005007  70.8773 289.2921 13.52686730  3814
MR-1                    
1 67557U 26015B   26050.59031312  .00000071  00000+0  88637-4 0  9994
2 67557  88.9961 280.5035 0005065  69.7827 290.3869 13.52661902  3815
ELECTRON R/B            
1 67558U 26015C   26050.89930205  .06197481 -15844-5  10268-2 0  9997
2 67558  88.9544 279.5335 0209669 162.3213 198.5519 15.94116561  4321
ELECTRON KICK STAGE R/B 
1 67559U 26015D   26050.58647749  .00047182 -14161-6  78902-3 0  9990
2 67559  89.0489 280.0521 0526922 236.5014 118.4804 14.68668598  4132
STARLINK-36426          
1 67560U 26014AA  26050.12076075  .00331933  00000+0  21323-2 0  9992
2 67560  97.2833 294.1888 0002786  66.7396 293.4162 15.75282314  5648
STARLINK-36621          
1 67561U 26016A   26050.11309478  .00119649  00000+0  79047-3 0  9995
2 67561  97.2824 109.6004 0002166 111.8966 248.2530 15.75229183  3871
STARLINK-36398          
1 67562U 26016B   26050.12049538  .00220034  00000+0  14312-2 0  9999
2 67562  97.2824 109.5882 0000897  68.0971 292.0389 15.75305465  3870
STARLINK-36403          
1 67563U 26016C   26050.58674133  .00394780  00000+0  19618-2 0  9999
2 67563  97.2833 110.1825 0001409  61.8745 298.2666 15.80906070  3956
STARLINK-36593          
1 67564U 26016D   26050.58336806 -.00272609  00000+0 -18723-2 0  9995
2 67564  97.2841 110.1765 0001696  81.8821 255.0842 15.75352257  5072
STARLINK-35725          
1 67565U 26016E   26050.60897476  .00316938  00000+0  20377-2 0  9994
2 67565  97.2824 110.1506 0001651  54.6149 305.5271 15.75305486  3953
STARLINK-36394          
1 67566U 26016F   26050.61073928  .00228702  00000+0  14880-2 0  9997
2 67566  97.2834 110.1453 0001615  58.9952 301.1472 15.75274653  3951
STARLINK-36352          
1 67567U 26016G   26050.13874151  .00244282  00000+0  12346-2 0  9998
2 67567  97.2831 109.7160 0001807 102.4210 257.7261 15.80924326  3882
