CCSDS_OMM_VERS = 2.0
CREATION_DATE  = 
ORIGINATOR     = 

OBJECT_NAME    = MR-2
OBJECT_ID      = 2026-015A
CENTER_NAME    = EARTH
REF_FRAME      = TEME
TIME_SYSTEM    = UTC
MEAN_ELEMENT_THEORY = SGP/SGP4

EPOCH          = 2026-02-19T14:09:18.688896
MEAN_MOTION    = 13.52686730
ECCENTRICITY   = .00050073
INCLINATION    = 88.9962
RA_OF_ASC_NODE = 280.5033
ARG_OF_PERICENTER = 70.8773
MEAN_ANOMALY   = 289.2921

EPHEMERIS_TYPE = 0
CLASSIFICATION_TYPE = U
NORAD_CAT_ID   = 67556
ELEMENT_SET_NO = 999
REV_AT_EPOCH   = 381
BSTAR          = .78972393E-4
MEAN_MOTION_DOT = .64E-6
MEAN_MOTION_DDOT = 0

CCSDS_OMM_VERS = 2.0
CREATION_DATE  = 
ORIGINATOR     = 

OBJECT_NAME    = MR-1
OBJECT_ID      = 2026-015B
CENTER_NAME    = EARTH
REF_FRAME      = TEME
TIME_SYSTEM    = UTC
MEAN_ELEMENT_THEORY = SGP/SGP4

EPOCH          = 2026-02-19T14:10:03.053568
MEAN_MOTION    = 13.52661902
ECCENTRICITY   = .00050656
INCLINATION    = 88.9961
RA_OF_ASC_NODE = 280.5035
ARG_OF_PERICENTER = 69.7827
MEAN_ANOMALY   = 290.3869

EPHEMERIS_TYPE = 0
CLASSIFICATION_TYPE = U
NORAD_CAT_ID   = 67557
ELEMENT_SET_NO = 999
REV_AT_EPOCH   = 381
BSTAR          = .88637473E-4
MEAN_MOTION_DOT = .71E-6
MEAN_MOTION_DDOT = 0

CCSDS_OMM_VERS = 2.0
CREATION_DATE  = 
ORIGINATOR     = 

OBJECT_NAME    = ELECTRON R/B
OBJECT_ID      = 2026-015C
CENTER_NAME    = EARTH
REF_FRAME      = TEME
TIME_SYSTEM    = UTC
MEAN_ELEMENT_THEORY = SGP/SGP4

EPOCH          = 2026-02-19T21:34:59.697120
MEAN_MOTION    = 15.94116561
ECCENTRICITY   = .0209669
INCLINATION    = 88.9544
RA_OF_ASC_NODE = 279.5335
ARG_OF_PERICENTER = 162.3213
MEAN_ANOMALY   = 198.5519

EPHEMERIS_TYPE = 0
CLASSIFICATION_TYPE = U
NORAD_CAT_ID   = 67558
ELEMENT_SET_NO = 999
REV_AT_EPOCH   = 432
BSTAR          = .10268E-2
MEAN_MOTION_DOT = .6197481E-1
MEAN_MOTION_DDOT = -.15844E-5

CCSDS_OMM_VERS = 2.0
CREATION_DATE  = 
ORIGINATOR     = 

OBJECT_NAME    = ELECTRON KICK STAGE R/B
OBJECT_ID      = 2026-015D
CENTER_NAME    = EARTH
REF_FRAME      = TEME
TIME_SYSTEM    = UTC
MEAN_ELEMENT_THEORY = SGP/SGP4

EPOCH          = 2026-02-19T14:04:31.655136
MEAN_MOTION    = 14.68668598
ECCENTRICITY   = .05269227
INCLINATION    = 89.0489
RA_OF_ASC_NODE = 280.0521
ARG_OF_PERICENTER = 236.5014
MEAN_ANOMALY   = 118.4804

EPHEMERIS_TYPE = 0
CLASSIFICATION_TYPE = U
NORAD_CAT_ID   = 67559
ELEMENT_SET_NO = 999
REV_AT_EPOCH   = 413
BSTAR          = .78901836E-3
MEAN_MOTION_DOT = .47182E-3
MEAN_MOTION_DDOT = -.141609E-6

CCSDS_OMM_VERS = 2.0
CREATION_DATE  = 
ORIGINATOR     = 

OBJECT_NAME    = STARLINK-36426
OBJECT_ID      = 2026-014AA
CENTER_NAME    = EARTH
REF_FRAME      = TEME
TIME_SYSTEM    = UTC
MEAN_ELEMENT_THEORY = SGP/SGP4

EPOCH          = 2026-02-19T02:53:53.728800
MEAN_MOTION    = 15.75282314
ECCENTRICITY   = .00027864
INCLINATION    = 97.2833
RA_OF_ASC_NODE = 294.1888
ARG_OF_PERICENTER = 66.7396
MEAN_ANOMALY   = 293.4162

EPHEMERIS_TYPE = 0
CLASSIFICATION_TYPE = U
NORAD_CAT_ID   = 67560
ELEMENT_SET_NO = 999
REV_AT_EPOCH   = 564
BSTAR          = .21323393E-2
MEAN_MOTION_DOT = .331933E-2
MEAN_MOTION_DDOT = 0

CCSDS_OMM_VERS = 2.0
CREATION_DATE  = 
ORIGINATOR     = 

OBJECT_NAME    = STARLINK-36621
OBJECT_ID      = 2026-016A
CENTER_NAME    = EARTH
REF_FRAME      = TEME
TIME_SYSTEM    = UTC
MEAN_ELEMENT_THEORY = SGP/SGP4

EPOCH          = 2026-02-19T02:42:51.388992
MEAN_MOTION    = 15.75229183
ECCENTRICITY   = .00021663
INCLINATION    = 97.2824
RA_OF_ASC_NODE = 109.6004
ARG_OF_PERICENTER = 111.8966
MEAN_ANOMALY   = 248.2530

EPHEMERIS_TYPE = 0
CLASSIFICATION_TYPE = U
NORAD_CAT_ID   = 67561
ELEMENT_SET_NO = 999
REV_AT_EPOCH   = 387
BSTAR          = .7904738E-3
MEAN_MOTION_DOT = .119649E-2
MEAN_MOTION_DDOT = 0

CCSDS_OMM_VERS = 2.0
CREATION_DATE  = 
ORIGINATOR     = 

OBJECT_NAME    = STARLINK-36398
OBJECT_ID      = 2026-016B
CENTER_NAME    = EARTH
REF_FRAME      = TEME
TIME_SYSTEM    = UTC
MEAN_ELEMENT_THEORY = SGP/SGP4

EPOCH          = 2026-02-19T02:53:30.800832
MEAN_MOTION    = 15.75305465
ECCENTRICITY   = .0000897
INCLINATION    = 97.2824
RA_OF_ASC_NODE = 109.5882
ARG_OF_PERICENTER = 68.0971
MEAN_ANOMALY   = 292.0389

EPHEMERIS_TYPE = 0
CLASSIFICATION_TYPE = U
NORAD_CAT_ID   = 67562
ELEMENT_SET_NO = 999
REV_AT_EPOCH   = 387
BSTAR          = .14312E-2
MEAN_MOTION_DOT = .220034E-2
MEAN_MOTION_DDOT = 0

CCSDS_OMM_VERS = 2.0
CREATION_DATE  = 
ORIGINATOR     = 

OBJECT_NAME    = STARLINK-36403
OBJECT_ID      = 2026-016C
CENTER_NAME    = EARTH
REF_FRAME      = TEME
TIME_SYSTEM    = UTC
MEAN_ELEMENT_THEORY = SGP/SGP4

EPOCH          = 2026-02-19T14:04:54.450912
MEAN_MOTION    = 15.80906070
ECCENTRICITY   = .00014097
INCLINATION    = 97.2833
RA_OF_ASC_NODE = 110.1825
ARG_OF_PERICENTER = 61.8745
MEAN_ANOMALY   = 298.2666

EPHEMERIS_TYPE = 0
CLASSIFICATION_TYPE = U
NORAD_CAT_ID   = 67563
ELEMENT_SET_NO = 999
REV_AT_EPOCH   = 395
BSTAR          = .19618279E-2
MEAN_MOTION_DOT = .39478E-2
MEAN_MOTION_DDOT = 0

CCSDS_OMM_VERS = 2.0
CREATION_DATE  = 
ORIGINATOR     = 

OBJECT_NAME    = STARLINK-36593
OBJECT_ID      = 2026-016D
CENTER_NAME    = EARTH
REF_FRAME      = TEME
TIME_SYSTEM    = UTC
MEAN_ELEMENT_THEORY = SGP/SGP4

EPOCH          = 2026-02-19T14:00:03.000384
MEAN_MOTION    = 15.75352257
ECCENTRICITY   = .00016965
INCLINATION    = 97.2841
RA_OF_ASC_NODE = 110.1765
ARG_OF_PERICENTER = 81.8821
MEAN_ANOMALY   = 255.0842

EPHEMERIS_TYPE = 0
CLASSIFICATION_TYPE = U
NORAD_CAT_ID   = 67564
ELEMENT_SET_NO = 999
REV_AT_EPOCH   = 507
BSTAR          = -.18722684E-2
MEAN_MOTION_DOT = -.272609E-2
MEAN_MOTION_DDOT = 0

CCSDS_OMM_VERS = 2.0
CREATION_DATE  = 
ORIGINATOR     = 

OBJECT_NAME    = STARLINK-35725
OBJECT_ID      = 2026-016E
CENTER_NAME    = EARTH
REF_FRAME      = TEME
TIME_SYSTEM    = UTC
MEAN_ELEMENT_THEORY = SGP/SGP4

EPOCH          = 2026-02-19T14:36:55.419264
MEAN_MOTION    = 15.75305486
ECCENTRICITY   = .00016519
INCLINATION    = 97.2824
RA_OF_ASC_NODE = 110.1506
ARG_OF_PERICENTER = 54.6149
MEAN_ANOMALY   = 305.5271

EPHEMERIS_TYPE = 0
CLASSIFICATION_TYPE = U
NORAD_CAT_ID   = 67565
ELEMENT_SET_NO = 999
REV_AT_EPOCH   = 395
BSTAR          = .20376818E-2
MEAN_MOTION_DOT = .316938E-2
MEAN_MOTION_DDOT = 0

CCSDS_OMM_VERS = 2.0
CREATION_DATE  = 
ORIGINATOR     = 

OBJECT_NAME    = STARLINK-36394
OBJECT_ID      = 2026-016F
CENTER_NAME    = EARTH
REF_FRAME      = TEME
TIME_SYSTEM    = UTC
MEAN_ELEMENT_THEORY = SGP/SGP4

EPOCH          = 2026-02-19T14:39:27.873792
MEAN_MOTION    = 15.75274653
ECCENTRICITY   = .00016158
INCLINATION    = 97.2834
RA_OF_ASC_NODE = 110.1453
ARG_OF_PERICENTER = 58.9952
MEAN_ANOMALY   = 301.1472

EPHEMERIS_TYPE = 0
CLASSIFICATION_TYPE = U
NORAD_CAT_ID   = 67566
ELEMENT_SET_NO = 999
REV_AT_EPOCH   = 395
BSTAR          = .1488025E-2
MEAN_MOTION_DOT = .228702E-2
MEAN_MOTION_DDOT = 0

CCSDS_OMM_VERS = 2.0
CREATION_DATE  = 
ORIGINATOR     = 

OBJECT_NAME    = STARLINK-36352
OBJECT_ID      = 2026-016G
CENTER_NAME    = EARTH
REF_FRAME      = TEME
TIME_SYSTEM    = UTC
MEAN_ELEMENT_THEORY = SGP/SGP4

EPOCH          = 2026-02-19T03:19:47.266464
MEAN_MOTION    = 15.80924326
ECCENTRICITY   = .00018076
INCLINATION    = 97.2831
RA_OF_ASC_NODE = 109.7160
ARG_OF_PERICENTER = 102.4210
MEAN_ANOMALY   = 257.7261

EPHEMERIS_TYPE = 0
CLASSIFICATION_TYPE = U
NORAD_CAT_ID   = 67567
ELEMENT_SET_NO = 999
REV_AT_EPOCH   = 388
BSTAR          = .12345541E-2
MEAN_MOTION_DOT = .244282E-2
MEAN_MOTION_DDOT = 0

